{"type": "FeatureCollection", "features": [{"type": "Feature", "properties": {"amp_th": "เมืองหนองบัวลำภู", "amp_code": "3901", "pro_code": "39", "pro_th": "หนองบัวลำภู"}, "geometry": {"type": "Polygon", "coordinates": [[[102.42067, 16.96231], [102.41240, 16.92357], [102.40610, 16.91732], [102.40356, 16.91802], [102.39666, 16.92743], [102.38922, 16.92925], [102.38444, 16.92588], [102.38355, 16.92714], [102.37878, 16.92574], [102.37208, 16.92916], [102.37635, 16.93977], [102.37617, 16.94923], [102.37306, 16.95295], [102.37083, 16.95349], [102.36629, 16.94940], [102.36253, 16.94993], [102.35680, 16.94817], [102.35047, 16.95190], [102.34804, 16.95877], [102.34317, 16.96438], [102.33660, 16.96450], [102.33078, 16.95793], [102.32693, 16.95685], [102.32159, 16.96099], [102.32074, 16.96543], [102.32216, 16.97113], [102.32193, 16.98262], [102.32333, 16.98543], [102.32041, 16.99255], [102.32425, 17.00045], [102.32484, 17.00525], [102.32669, 17.00719], [102.32343, 17.01359], [102.32805, 17.01962], [102.32693, 17.02135], [102.33067, 17.02730], [102.32943, 17.02923], [102.33081, 17.03336], [102.32888, 17.03474], [102.33011, 17.04272], [102.32439, 17.05519], [102.32752, 17.06501], [102.33134, 17.07034], [102.32998, 17.07944], [102.33171, 17.08842], [102.32723, 17.09119], [102.32771, 17.09433], [102.32586, 17.09521], [102.32714, 17.10189], [102.32566, 17.10777], [102.32351, 17.10861], [102.32415, 17.11074], [102.31899, 17.11670], [102.31931, 17.11825], [102.31433, 17.11771], [102.31072, 17.11996], [102.30547, 17.12086], [102.30633, 17.12573], [102.30311, 17.12643], [102.29969, 17.12522], [102.29676, 17.12737], [102.29348, 17.12543], [102.28757, 17.12751], [102.27840, 17.12655], [102.27464, 17.13194], [102.26602, 17.13251], [102.26683, 17.13554], [102.26314, 17.14258], [102.25780, 17.14616], [102.24992, 17.14730], [102.24140, 17.15316], [102.24328, 17.15805], [102.24098, 17.16498], [102.24330, 17.16719], [102.24579, 17.16636], [102.24771, 17.17620], [102.25187, 17.18617], [102.25011, 17.18983], [102.24769, 17.19122], [102.24788, 17.19354], [102.24518, 17.19804], [102.23955, 17.20144], [102.24967, 17.21156], [102.25017, 17.21603], [102.26095, 17.22151], [102.26405, 17.21972], [102.26562, 17.22133], [102.26830, 17.22087], [102.27079, 17.22262], [102.27188, 17.22608], [102.27493, 17.22693], [102.27542, 17.23094], [102.27782, 17.23291], [102.28111, 17.23301], [102.28249, 17.23124], [102.28511, 17.23343], [102.28088, 17.23632], [102.27716, 17.24180], [102.27857, 17.24278], [102.27794, 17.24668], [102.27483, 17.24714], [102.27498, 17.25101], [102.27724, 17.25158], [102.27622, 17.25540], [102.27468, 17.25505], [102.27075, 17.25774], [102.27281, 17.25913], [102.27456, 17.26399], [102.27369, 17.26525], [102.27531, 17.26664], [102.27516, 17.27103], [102.27129, 17.27323], [102.26758, 17.28223], [102.26467, 17.28314], [102.26136, 17.28960], [102.25744, 17.29207], [102.25379, 17.29976], [102.25413, 17.30278], [102.24978, 17.30665], [102.24877, 17.31019], [102.24493, 17.31369], [102.24039, 17.31264], [102.23618, 17.32656], [102.24226, 17.33585], [102.23824, 17.34292], [102.24082, 17.34458], [102.24746, 17.34224], [102.25053, 17.33871], [102.25052, 17.33505], [102.26914, 17.31304], [102.28181, 17.31141], [102.28393, 17.30853], [102.28627, 17.30866], [102.29194, 17.31640], [102.29859, 17.31733], [102.30659, 17.32115], [102.30841, 17.32357], [102.31214, 17.32304], [102.31319, 17.32827], [102.31718, 17.33046], [102.31755, 17.33551], [102.32060, 17.33579], [102.32305, 17.33733], [102.32352, 17.33942], [102.32733, 17.33981], [102.32859, 17.34237], [102.33012, 17.34225], [102.33125, 17.34687], [102.33272, 17.34687], [102.33440, 17.35019], [102.33609, 17.35068], [102.33645, 17.35351], [102.33803, 17.35467], [102.33686, 17.35676], [102.34001, 17.36235], [102.33693, 17.37209], [102.33944, 17.37768], [102.33868, 17.37859], [102.34007, 17.37958], [102.34271, 17.37533], [102.34216, 17.37304], [102.34728, 17.36827], [102.34832, 17.36559], [102.35551, 17.35988], [102.35799, 17.35999], [102.36324, 17.35340], [102.36640, 17.35315], [102.36902, 17.34937], [102.37168, 17.34816], [102.37369, 17.34933], [102.37507, 17.34834], [102.37988, 17.38458], [102.39104, 17.38210], [102.39440, 17.37996], [102.39991, 17.38272], [102.40419, 17.38263], [102.40608, 17.38150], [102.40803, 17.37544], [102.40985, 17.37415], [102.42118, 17.37582], [102.42758, 17.36649], [102.43120, 17.35388], [102.43641, 17.34320], [102.44098, 17.32591], [102.44004, 17.30153], [102.43771, 17.28391], [102.43875, 17.28162], [102.46221, 17.28706], [102.47671, 17.28386], [102.48000, 17.28462], [102.48474, 17.28250], [102.48698, 17.28311], [102.50157, 17.27189], [102.51058, 17.27525], [102.51680, 17.27270], [102.52015, 17.27390], [102.52617, 17.27125], [102.53864, 17.27619], [102.54356, 17.27539], [102.54838, 17.27690], [102.56104, 17.26888], [102.57365, 17.27029], [102.57827, 17.26916], [102.57666, 17.26476], [102.59269, 17.26586], [102.59464, 17.26378], [102.59112, 17.25929], [102.59062, 17.25168], [102.58440, 17.24550], [102.58501, 17.24149], [102.57818, 17.24016], [102.57442, 17.23363], [102.57192, 17.23412], [102.56978, 17.23651], [102.56734, 17.23271], [102.53830, 17.22550], [102.53538, 17.22860], [102.52737, 17.22517], [102.52287, 17.22503], [102.50217, 17.23009], [102.49541, 17.22239], [102.49081, 17.21947], [102.48979, 17.21213], [102.49112, 17.20751], [102.48439, 17.20607], [102.48038, 17.20364], [102.47607, 17.20456], [102.47104, 17.20213], [102.46919, 17.20270], [102.48280, 17.17700], [102.50420, 17.14626], [102.51617, 17.10751], [102.52185, 17.09612], [102.54329, 17.06693], [102.56433, 17.05169], [102.56880, 17.04686], [102.57938, 17.04081], [102.57334, 17.03244], [102.56775, 17.03027], [102.55896, 17.02204], [102.54573, 17.01492], [102.54539, 17.01326], [102.54350, 17.01350], [102.54327, 17.01646], [102.54011, 17.01943], [102.53701, 17.01982], [102.53300, 17.01821], [102.53219, 17.01909], [102.52463, 17.01599], [102.52463, 17.01421], [102.52233, 17.01363], [102.52236, 17.01221], [102.51117, 17.01017], [102.51033, 17.00717], [102.50813, 17.00687], [102.50624, 17.00363], [102.50456, 17.00398], [102.49999, 16.99986], [102.49055, 17.01675], [102.48344, 17.02463], [102.47112, 17.02847], [102.46240, 17.02625], [102.44596, 17.01244], [102.43236, 16.99330], [102.42954, 16.98411], [102.42927, 16.97784], [102.42349, 16.96937], [102.42067, 16.96231]]]}}, {"type": "Feature", "properties": {"amp_th": "นากลาง", "amp_code": "3902", "pro_code": "39", "pro_th": "หนองบัวลำภู"}, "geometry": {"type": "Polygon", "coordinates": [[[102.24769, 17.19121], [102.25011, 17.18983], [102.25185, 17.18598], [102.24771, 17.17620], [102.24579, 17.16636], [102.24330, 17.16719], [102.24098, 17.16498], [102.24328, 17.15805], [102.24140, 17.15316], [102.24992, 17.14730], [102.25425, 17.14664], [102.24918, 17.14303], [102.24491, 17.13731], [102.23915, 17.13661], [102.23669, 17.13119], [102.23166, 17.12826], [102.23119, 17.13024], [102.22755, 17.13191], [102.22907, 17.13350], [102.22737, 17.13740], [102.22874, 17.13839], [102.22811, 17.14154], [102.22663, 17.14166], [102.22612, 17.14421], [102.22418, 17.14292], [102.22182, 17.14813], [102.21888, 17.14914], [102.21843, 17.15112], [102.21018, 17.15049], [102.20220, 17.15456], [102.19281, 17.15395], [102.19006, 17.15858], [102.18646, 17.15938], [102.18633, 17.16161], [102.18410, 17.16198], [102.18511, 17.16287], [102.18064, 17.16756], [102.17735, 17.16770], [102.16759, 17.16337], [102.16727, 17.16456], [102.16206, 17.16571], [102.16128, 17.16784], [102.15828, 17.16730], [102.15751, 17.16915], [102.15421, 17.16979], [102.15047, 17.17298], [102.14788, 17.17267], [102.14783, 17.17397], [102.14202, 17.17671], [102.13984, 17.17532], [102.13807, 17.17622], [102.13479, 17.17291], [102.13086, 17.17262], [102.12895, 17.17687], [102.12369, 17.18079], [102.12248, 17.18787], [102.11719, 17.19015], [102.11394, 17.19634], [102.11014, 17.19925], [102.11180, 17.20193], [102.11187, 17.20580], [102.11104, 17.20754], [102.10914, 17.20744], [102.10935, 17.20959], [102.10531, 17.21369], [102.10248, 17.22299], [102.10560, 17.23001], [102.09629, 17.23392], [102.09411, 17.23918], [102.09284, 17.25070], [102.09672, 17.24964], [102.10480, 17.25053], [102.12026, 17.26237], [102.13878, 17.27120], [102.14144, 17.29979], [102.13962, 17.29927], [102.14047, 17.30029], [102.13921, 17.30123], [102.13926, 17.30020], [102.13520, 17.29910], [102.12972, 17.30393], [102.12713, 17.30318], [102.12723, 17.30509], [102.12500, 17.30434], [102.12366, 17.30562], [102.12387, 17.30449], [102.12112, 17.30342], [102.12096, 17.30755], [102.11891, 17.30634], [102.11905, 17.30820], [102.12149, 17.31006], [102.11824, 17.31748], [102.11741, 17.32205], [102.11842, 17.32268], [102.10699, 17.33221], [102.11024, 17.33278], [102.11742, 17.33817], [102.11471, 17.34184], [102.11371, 17.35156], [102.11681, 17.36249], [102.11870, 17.36167], [102.12165, 17.36412], [102.12510, 17.36399], [102.12612, 17.36639], [102.13215, 17.36810], [102.11812, 17.37540], [102.12222, 17.38057], [102.12175, 17.39121], [102.12631, 17.39513], [102.11895, 17.39991], [102.10636, 17.41365], [102.09674, 17.43675], [102.10565, 17.44809], [102.11003, 17.45169], [102.11316, 17.45159], [102.11204, 17.45341], [102.11329, 17.45306], [102.11626, 17.45610], [102.12105, 17.45162], [102.12190, 17.45333], [102.12090, 17.45419], [102.12354, 17.45454], [102.12300, 17.45547], [102.12551, 17.45747], [102.12707, 17.45690], [102.12676, 17.45948], [102.12922, 17.46077], [102.12628, 17.46178], [102.12591, 17.46385], [102.12432, 17.46319], [102.12456, 17.46577], [102.12081, 17.47313], [102.11743, 17.47306], [102.11778, 17.46971], [102.11343, 17.46739], [102.11392, 17.46873], [102.11093, 17.47069], [102.10888, 17.47600], [102.10764, 17.47676], [102.10620, 17.47514], [102.10445, 17.47610], [102.10830, 17.48097], [102.12096, 17.48444], [102.12596, 17.48837], [102.12874, 17.49246], [102.12917, 17.49785], [102.13372, 17.49628], [102.13509, 17.49205], [102.14019, 17.49255], [102.14131, 17.49088], [102.14373, 17.49101], [102.14361, 17.48913], [102.14706, 17.48863], [102.15038, 17.48603], [102.15089, 17.48750], [102.15621, 17.48710], [102.15888, 17.49266], [102.16332, 17.49438], [102.16865, 17.49502], [102.17564, 17.49360], [102.18718, 17.48611], [102.19908, 17.47277], [102.20199, 17.47318], [102.21365, 17.46996], [102.21731, 17.47789], [102.22022, 17.46540], [102.24221, 17.45348], [102.24024, 17.44487], [102.24948, 17.44341], [102.25448, 17.43902], [102.25827, 17.43828], [102.25641, 17.43426], [102.26253, 17.42434], [102.26987, 17.42095], [102.28407, 17.42255], [102.28656, 17.42168], [102.29454, 17.41410], [102.29383, 17.41177], [102.29537, 17.41119], [102.30000, 17.41214], [102.30412, 17.40932], [102.31317, 17.41104], [102.31341, 17.41446], [102.31571, 17.41582], [102.31465, 17.41844], [102.31548, 17.42042], [102.31428, 17.42047], [102.31472, 17.42456], [102.31608, 17.42457], [102.31513, 17.42683], [102.31747, 17.42884], [102.31607, 17.43200], [102.32085, 17.43201], [102.32849, 17.43493], [102.34236, 17.44894], [102.34500, 17.44698], [102.34562, 17.44416], [102.34772, 17.44456], [102.34815, 17.44245], [102.35065, 17.44345], [102.35827, 17.43745], [102.35680, 17.43647], [102.35763, 17.43386], [102.35410, 17.43230], [102.35564, 17.42639], [102.35832, 17.42429], [102.36423, 17.42376], [102.36456, 17.42170], [102.36906, 17.41932], [102.36992, 17.41722], [102.37355, 17.41579], [102.37631, 17.41689], [102.37816, 17.41556], [102.37960, 17.41643], [102.39860, 17.41463], [102.42118, 17.37582], [102.40985, 17.37415], [102.40803, 17.37544], [102.40608, 17.38150], [102.40419, 17.38263], [102.39991, 17.38272], [102.39440, 17.37996], [102.39104, 17.38210], [102.37988, 17.38458], [102.37507, 17.34834], [102.37369, 17.34933], [102.37168, 17.34816], [102.36902, 17.34937], [102.36640, 17.35315], [102.36324, 17.35340], [102.35799, 17.35999], [102.35551, 17.35988], [102.34832, 17.36559], [102.34728, 17.36827], [102.34216, 17.37304], [102.34271, 17.37533], [102.34002, 17.37956], [102.33693, 17.37209], [102.34001, 17.36235], [102.33686, 17.35676], [102.33803, 17.35467], [102.33645, 17.35351], [102.33609, 17.35068], [102.33440, 17.35019], [102.33272, 17.34687], [102.33125, 17.34687], [102.33012, 17.34225], [102.32859, 17.34237], [102.32733, 17.33981], [102.32352, 17.33942], [102.32305, 17.33733], [102.32060, 17.33579], [102.31755, 17.33551], [102.31718, 17.33046], [102.31319, 17.32827], [102.31214, 17.32304], [102.30841, 17.32357], [102.30659, 17.32115], [102.29859, 17.31733], [102.29194, 17.31640], [102.28528, 17.30833], [102.28181, 17.31141], [102.26914, 17.31304], [102.25052, 17.33505], [102.25053, 17.33871], [102.24746, 17.34224], [102.24084, 17.34458], [102.23892, 17.34394], [102.23821, 17.34260], [102.24226, 17.33579], [102.23618, 17.32654], [102.24039, 17.31264], [102.24493, 17.31369], [102.24877, 17.31019], [102.24978, 17.30665], [102.25413, 17.30278], [102.25379, 17.29976], [102.25744, 17.29207], [102.26136, 17.28960], [102.26467, 17.28314], [102.26758, 17.28223], [102.27129, 17.27323], [102.27516, 17.27103], [102.27531, 17.26664], [102.27369, 17.26525], [102.27456, 17.26399], [102.27281, 17.25913], [102.27075, 17.25774], [102.27468, 17.25505], [102.27622, 17.25540], [102.27724, 17.25158], [102.27498, 17.25101], [102.27483, 17.24714], [102.27794, 17.24668], [102.27857, 17.24278], [102.27716, 17.24180], [102.28088, 17.23632], [102.28344, 17.23528], [102.28295, 17.23416], [102.28509, 17.23386], [102.28249, 17.23124], [102.28111, 17.23301], [102.27782, 17.23291], [102.27542, 17.23094], [102.27493, 17.22693], [102.27188, 17.22608], [102.27079, 17.22262], [102.26830, 17.22087], [102.26562, 17.22133], [102.26405, 17.21972], [102.26095, 17.22151], [102.25015, 17.21601], [102.24967, 17.21156], [102.23955, 17.20144], [102.24518, 17.19804], [102.24788, 17.19354], [102.24769, 17.19121]]]}}, {"type": "Feature", "properties": {"amp_th": "โนนสัง", "amp_code": "3903", "pro_code": "39", "pro_th": "หนองบัวลำภู"}, "geometry": {"type": "Polygon", "coordinates": [[[102.60801, 16.77215], [102.53942, 16.78401], [102.51417, 16.79535], [102.50278, 16.80194], [102.49647, 16.80387], [102.48944, 16.80331], [102.47847, 16.79986], [102.47198, 16.80007], [102.45936, 16.80854], [102.45508, 16.80686], [102.45327, 16.79526], [102.45000, 16.79014], [102.44545, 16.78933], [102.44288, 16.79377], [102.43877, 16.79490], [102.43751, 16.79284], [102.43853, 16.78770], [102.43349, 16.78341], [102.42839, 16.79133], [102.42492, 16.79130], [102.42398, 16.79380], [102.42200, 16.79324], [102.41989, 16.79492], [102.41499, 16.79452], [102.41560, 16.80507], [102.40849, 16.80420], [102.40657, 16.80179], [102.40499, 16.80227], [102.40422, 16.81081], [102.40530, 16.82066], [102.39969, 16.83522], [102.38634, 16.85804], [102.38626, 16.86167], [102.38316, 16.86171], [102.38424, 16.86376], [102.38146, 16.86394], [102.37875, 16.86879], [102.37720, 16.86917], [102.37749, 16.87187], [102.37929, 16.87253], [102.37794, 16.87408], [102.37946, 16.87481], [102.36789, 16.87643], [102.36903, 16.87973], [102.37053, 16.87967], [102.36988, 16.88311], [102.37209, 16.88334], [102.37321, 16.88444], [102.37234, 16.88528], [102.37385, 16.88574], [102.37262, 16.88769], [102.37467, 16.88720], [102.37435, 16.89202], [102.37668, 16.89268], [102.37387, 16.89685], [102.37746, 16.89708], [102.37582, 16.89931], [102.37759, 16.89904], [102.37919, 16.90112], [102.37764, 16.90123], [102.37859, 16.90587], [102.37681, 16.90461], [102.37447, 16.90749], [102.37774, 16.90929], [102.37663, 16.91206], [102.37977, 16.91157], [102.38211, 16.91371], [102.38040, 16.91639], [102.38298, 16.91515], [102.38294, 16.91744], [102.38414, 16.91762], [102.38199, 16.92148], [102.38515, 16.92411], [102.38519, 16.92667], [102.38922, 16.92925], [102.39666, 16.92743], [102.40151, 16.92025], [102.40557, 16.91733], [102.41240, 16.92357], [102.42074, 16.96300], [102.42927, 16.97784], [102.42954, 16.98411], [102.43236, 16.99330], [102.44596, 17.01244], [102.46240, 17.02625], [102.47112, 17.02847], [102.48344, 17.02463], [102.49055, 17.01675], [102.49999, 16.99986], [102.50456, 17.00398], [102.50624, 17.00363], [102.50813, 17.00687], [102.51033, 17.00717], [102.51117, 17.01017], [102.52236, 17.01221], [102.52233, 17.01363], [102.52463, 17.01421], [102.52463, 17.01599], [102.53219, 17.01909], [102.53300, 17.01821], [102.53701, 17.01982], [102.54011, 17.01943], [102.54327, 17.01646], [102.54350, 17.01350], [102.54539, 17.01326], [102.54573, 17.01492], [102.55896, 17.02204], [102.56775, 17.03027], [102.57334, 17.03244], [102.57938, 17.04081], [102.60908, 17.02742], [102.64836, 17.00011], [102.66259, 16.99720], [102.66970, 16.99346], [102.67915, 16.96900], [102.67710, 16.95501], [102.66535, 16.92656], [102.63927, 16.87995], [102.61871, 16.82754], [102.61471, 16.81044], [102.61215, 16.78844], [102.61517, 16.77961], [102.60801, 16.77215]]]}}, {"type": "Feature", "properties": {"amp_th": "ศรีบุญเรือง", "amp_code": "3904", "pro_code": "39", "pro_th": "หนองบัวลำภู"}, "geometry": {"type": "Polygon", "coordinates": [[[102.25372, 16.89366], [102.25446, 16.89127], [102.24955, 16.89154], [102.25055, 16.88957], [102.24879, 16.88803], [102.24913, 16.87840], [102.24472, 16.88175], [102.24416, 16.88047], [102.24624, 16.87713], [102.24347, 16.87743], [102.24255, 16.87518], [102.24090, 16.87648], [102.24139, 16.87863], [102.23522, 16.88059], [102.23365, 16.87933], [102.23503, 16.87737], [102.23396, 16.87517], [102.23286, 16.87470], [102.23149, 16.87697], [102.22774, 16.87591], [102.22886, 16.87337], [102.22640, 16.87309], [102.22450, 16.87091], [102.22665, 16.86901], [102.22226, 16.86871], [102.22094, 16.86529], [102.21437, 16.86307], [102.21384, 16.86037], [102.20416, 16.86272], [102.20080, 16.86185], [102.19940, 16.85998], [102.19093, 16.85926], [102.18816, 16.85753], [102.18520, 16.86171], [102.18486, 16.86712], [102.18040, 16.87193], [102.17886, 16.87173], [102.17440, 16.86564], [102.17150, 16.86497], [102.16756, 16.86680], [102.16886, 16.86930], [102.16812, 16.87061], [102.16568, 16.87003], [102.15782, 16.87203], [102.15837, 16.87522], [102.15616, 16.88127], [102.14469, 16.88069], [102.14420, 16.87629], [102.14107, 16.87753], [102.14084, 16.88019], [102.13491, 16.87850], [102.13207, 16.88237], [102.12938, 16.88333], [102.12444, 16.88054], [102.11883, 16.88877], [102.11366, 16.88723], [102.11319, 16.89163], [102.11075, 16.89292], [102.11081, 16.89440], [102.10468, 16.89741], [102.10025, 16.89623], [102.09959, 16.89240], [102.09641, 16.89090], [102.09878, 16.88316], [102.09670, 16.88261], [102.08581, 16.88538], [102.08135, 16.88972], [102.07466, 16.88553], [102.07076, 16.88518], [102.06804, 16.89288], [102.06367, 16.89663], [102.04861, 16.90440], [102.04583, 16.91585], [102.03392, 16.93756], [102.02921, 16.95067], [102.03570, 16.95584], [102.04563, 16.96012], [102.05089, 16.96501], [102.05637, 16.96482], [102.05890, 16.96619], [102.06319, 16.96204], [102.06720, 16.96099], [102.07065, 16.96370], [102.07249, 16.96317], [102.07593, 16.96605], [102.07559, 16.96903], [102.07700, 16.97136], [102.08026, 16.97180], [102.08258, 16.97392], [102.08755, 16.97428], [102.09133, 16.98048], [102.11330, 16.99110], [102.12388, 16.99398], [102.14402, 17.01404], [102.14492, 17.01732], [102.14704, 17.01748], [102.15124, 17.02456], [102.15364, 17.02450], [102.15429, 17.02290], [102.15544, 17.02426], [102.15199, 17.03160], [102.15007, 17.03175], [102.15099, 17.03255], [102.14952, 17.03374], [102.14797, 17.03439], [102.14827, 17.03258], [102.14525, 17.03136], [102.14040, 17.03538], [102.13516, 17.03525], [102.13342, 17.03727], [102.13248, 17.03596], [102.13204, 17.03757], [102.13018, 17.03738], [102.12900, 17.04093], [102.12502, 17.04213], [102.12577, 17.04551], [102.12335, 17.04720], [102.12214, 17.05293], [102.12036, 17.05243], [102.12031, 17.05746], [102.11407, 17.05811], [102.11200, 17.06040], [102.10939, 17.06054], [102.10978, 17.06176], [102.10605, 17.06160], [102.10522, 17.06317], [102.10636, 17.06478], [102.10182, 17.06706], [102.10163, 17.07031], [102.10272, 17.07105], [102.10144, 17.07216], [102.10304, 17.07474], [102.10088, 17.07531], [102.10153, 17.07652], [102.10245, 17.07560], [102.10570, 17.08108], [102.10344, 17.08482], [102.10148, 17.08427], [102.10197, 17.08617], [102.09988, 17.08748], [102.10127, 17.08780], [102.10143, 17.09067], [102.09933, 17.09228], [102.10044, 17.09310], [102.09943, 17.09792], [102.10059, 17.09842], [102.10052, 17.10110], [102.09930, 17.09988], [102.09708, 17.10256], [102.09246, 17.10254], [102.09090, 17.10546], [102.09112, 17.10923], [102.08892, 17.11257], [102.08775, 17.11206], [102.08661, 17.11448], [102.08598, 17.11281], [102.08551, 17.11380], [102.08319, 17.11197], [102.07994, 17.11188], [102.07932, 17.11393], [102.07500, 17.11062], [102.07512, 17.11215], [102.07251, 17.11191], [102.07071, 17.11534], [102.06871, 17.11505], [102.06711, 17.11738], [102.06793, 17.11809], [102.06561, 17.11977], [102.06614, 17.12122], [102.06170, 17.12004], [102.05949, 17.12358], [102.05780, 17.12379], [102.05803, 17.12649], [102.05321, 17.12622], [102.05083, 17.13336], [102.04847, 17.13342], [102.04607, 17.13551], [102.04386, 17.13463], [102.04365, 17.13289], [102.03822, 17.13692], [102.03678, 17.14373], [102.03524, 17.14530], [102.03628, 17.14608], [102.03402, 17.14817], [102.03729, 17.15094], [102.04080, 17.15108], [102.04238, 17.15903], [102.04437, 17.16016], [102.04314, 17.16769], [102.05419, 17.17159], [102.06445, 17.16326], [102.07109, 17.16182], [102.08497, 17.16438], [102.08775, 17.16997], [102.09747, 17.17261], [102.09961, 17.17632], [102.09953, 17.17955], [102.10518, 17.17619], [102.10948, 17.17613], [102.11581, 17.17769], [102.12311, 17.18196], [102.12903, 17.17678], [102.13088, 17.17261], [102.13479, 17.17291], [102.13807, 17.17622], [102.13984, 17.17532], [102.14202, 17.17671], [102.14783, 17.17397], [102.14788, 17.17267], [102.15047, 17.17298], [102.15421, 17.16979], [102.15751, 17.16915], [102.15828, 17.16730], [102.16128, 17.16784], [102.16206, 17.16571], [102.16727, 17.16456], [102.16759, 17.16337], [102.17735, 17.16770], [102.18064, 17.16756], [102.18511, 17.16287], [102.18410, 17.16198], [102.18633, 17.16161], [102.18646, 17.15938], [102.19006, 17.15858], [102.19281, 17.15395], [102.20220, 17.15456], [102.21018, 17.15049], [102.21843, 17.15112], [102.21888, 17.14914], [102.22182, 17.14813], [102.22418, 17.14292], [102.22612, 17.14421], [102.22658, 17.14172], [102.22834, 17.14114], [102.22873, 17.13834], [102.22737, 17.13740], [102.22907, 17.13350], [102.22755, 17.13191], [102.23119, 17.13024], [102.23118, 17.12840], [102.23669, 17.13119], [102.23927, 17.13669], [102.24628, 17.13830], [102.24918, 17.14303], [102.25425, 17.14664], [102.25780, 17.14616], [102.26314, 17.14258], [102.26683, 17.13554], [102.26602, 17.13251], [102.27464, 17.13194], [102.27840, 17.12655], [102.28757, 17.12751], [102.29348, 17.12543], [102.29676, 17.12737], [102.29969, 17.12522], [102.30367, 17.12636], [102.30633, 17.12573], [102.30547, 17.12086], [102.31072, 17.11996], [102.31422, 17.11773], [102.31954, 17.11801], [102.31899, 17.11670], [102.32415, 17.11074], [102.32351, 17.10861], [102.32566, 17.10777], [102.32714, 17.10189], [102.32586, 17.09521], [102.32771, 17.09433], [102.32723, 17.09119], [102.33171, 17.08842], [102.32998, 17.07944], [102.33134, 17.07034], [102.32752, 17.06501], [102.32439, 17.05519], [102.33011, 17.04272], [102.32888, 17.03474], [102.33081, 17.03336], [102.32943, 17.02923], [102.33067, 17.02730], [102.32693, 17.02135], [102.32805, 17.01962], [102.32343, 17.01359], [102.32678, 17.00799], [102.32037, 16.99223], [102.32333, 16.98543], [102.32193, 16.98262], [102.32105, 16.96178], [102.32693, 16.95685], [102.33078, 16.95793], [102.33660, 16.96450], [102.34007, 16.96514], [102.34317, 16.96438], [102.34804, 16.95877], [102.35047, 16.95190], [102.35441, 16.95060], [102.35659, 16.94824], [102.36253, 16.94993], [102.36629, 16.94940], [102.37129, 16.95363], [102.37591, 16.94987], [102.37635, 16.93977], [102.37208, 16.92916], [102.37861, 16.92576], [102.38363, 16.92714], [102.38549, 16.92616], [102.38539, 16.92472], [102.38203, 16.92163], [102.38414, 16.91762], [102.38294, 16.91744], [102.38296, 16.91510], [102.38032, 16.91627], [102.38211, 16.91371], [102.37977, 16.91157], [102.37663, 16.91206], [102.37774, 16.90929], [102.37447, 16.90749], [102.37681, 16.90461], [102.37859, 16.90587], [102.37764, 16.90123], [102.37919, 16.90112], [102.37759, 16.89904], [102.37582, 16.89931], [102.37746, 16.89708], [102.37387, 16.89685], [102.37668, 16.89268], [102.37435, 16.89202], [102.37467, 16.88720], [102.37262, 16.88769], [102.37385, 16.88574], [102.37234, 16.88528], [102.37321, 16.88444], [102.37209, 16.88334], [102.36988, 16.88311], [102.37053, 16.87967], [102.36903, 16.87973], [102.36787, 16.87649], [102.37952, 16.87474], [102.37794, 16.87408], [102.37929, 16.87253], [102.37749, 16.87187], [102.37716, 16.86924], [102.37875, 16.86879], [102.38146, 16.86394], [102.38424, 16.86376], [102.38316, 16.86171], [102.38626, 16.86167], [102.38634, 16.85804], [102.40384, 16.82566], [102.40530, 16.82066], [102.40516, 16.81526], [102.40104, 16.81784], [102.39899, 16.81531], [102.39410, 16.81599], [102.39186, 16.81039], [102.38553, 16.81647], [102.37758, 16.81794], [102.37558, 16.81596], [102.37943, 16.81438], [102.37960, 16.81232], [102.37556, 16.81082], [102.37428, 16.81311], [102.37033, 16.81363], [102.36582, 16.81778], [102.36149, 16.81680], [102.35819, 16.82225], [102.35506, 16.82304], [102.35595, 16.82538], [102.35008, 16.83096], [102.34890, 16.82641], [102.34999, 16.82422], [102.34705, 16.81848], [102.34333, 16.81801], [102.34138, 16.82341], [102.33828, 16.82442], [102.33909, 16.82933], [102.33594, 16.83165], [102.34042, 16.83495], [102.33995, 16.83669], [102.33167, 16.84034], [102.32954, 16.84487], [102.32355, 16.84627], [102.33210, 16.84861], [102.33064, 16.85493], [102.32864, 16.85587], [102.32263, 16.85320], [102.31911, 16.85518], [102.31674, 16.85477], [102.31779, 16.85833], [102.32113, 16.85979], [102.31929, 16.86180], [102.32445, 16.86504], [102.32474, 16.86699], [102.31494, 16.86933], [102.31193, 16.86730], [102.30721, 16.87498], [102.30259, 16.87661], [102.30217, 16.88047], [102.30717, 16.88210], [102.30702, 16.88427], [102.30198, 16.88560], [102.29809, 16.88261], [102.29625, 16.88453], [102.29169, 16.88405], [102.29192, 16.88769], [102.29601, 16.88946], [102.29537, 16.89186], [102.29228, 16.88992], [102.28813, 16.88979], [102.28758, 16.89183], [102.28484, 16.89090], [102.27763, 16.89401], [102.26356, 16.89173], [102.25896, 16.89442], [102.25732, 16.89352], [102.25473, 16.89485], [102.25372, 16.89366]]]}}, {"type": "Feature", "properties": {"amp_th": "สุวรรณคูหา", "amp_code": "3905", "pro_code": "39", "pro_th": "หนองบัวลำภู"}, "geometry": {"type": "Polygon", "coordinates": [[[102.34832, 17.52794], [102.36187, 17.51378], [102.36474, 17.50614], [102.36665, 17.50625], [102.36580, 17.50345], [102.36884, 17.50034], [102.37081, 17.49527], [102.39860, 17.41463], [102.37960, 17.41643], [102.37816, 17.41556], [102.37631, 17.41689], [102.37355, 17.41579], [102.36992, 17.41722], [102.36906, 17.41932], [102.36456, 17.42170], [102.36423, 17.42376], [102.35832, 17.42429], [102.35564, 17.42639], [102.35410, 17.43230], [102.35763, 17.43386], [102.35680, 17.43647], [102.35827, 17.43745], [102.35065, 17.44345], [102.34815, 17.44245], [102.34772, 17.44456], [102.34562, 17.44416], [102.34500, 17.44698], [102.34236, 17.44894], [102.32849, 17.43493], [102.32085, 17.43201], [102.31607, 17.43200], [102.31747, 17.42884], [102.31513, 17.42683], [102.31608, 17.42457], [102.31472, 17.42456], [102.31428, 17.42047], [102.31548, 17.42042], [102.31465, 17.41844], [102.31570, 17.41579], [102.31341, 17.41446], [102.31317, 17.41105], [102.31138, 17.41000], [102.30412, 17.40932], [102.30000, 17.41214], [102.29394, 17.41164], [102.29454, 17.41410], [102.28457, 17.42246], [102.26641, 17.42159], [102.26253, 17.42434], [102.25641, 17.43426], [102.25827, 17.43828], [102.25448, 17.43902], [102.24948, 17.44341], [102.24024, 17.44487], [102.24221, 17.45348], [102.22022, 17.46540], [102.21731, 17.47789], [102.21365, 17.46996], [102.20199, 17.47318], [102.19908, 17.47277], [102.18718, 17.48611], [102.17564, 17.49360], [102.16865, 17.49502], [102.16332, 17.49438], [102.15888, 17.49266], [102.15621, 17.48710], [102.15089, 17.48750], [102.15047, 17.48602], [102.14706, 17.48863], [102.14361, 17.48913], [102.14373, 17.49101], [102.14131, 17.49088], [102.14019, 17.49255], [102.13509, 17.49205], [102.13372, 17.49628], [102.12883, 17.49859], [102.12799, 17.49759], [102.12452, 17.50281], [102.12595, 17.50631], [102.12543, 17.50902], [102.13544, 17.50879], [102.13578, 17.51540], [102.13848, 17.51912], [102.13977, 17.52753], [102.13980, 17.53240], [102.13668, 17.53328], [102.13279, 17.54113], [102.13556, 17.54698], [102.13516, 17.55340], [102.13154, 17.55993], [102.11888, 17.56879], [102.11960, 17.57237], [102.11535, 17.57720], [102.11396, 17.58771], [102.10637, 17.60766], [102.10029, 17.61405], [102.09738, 17.61315], [102.08969, 17.62698], [102.08653, 17.62839], [102.08322, 17.63432], [102.08609, 17.63409], [102.08731, 17.63697], [102.09095, 17.63803], [102.09139, 17.64068], [102.09800, 17.64387], [102.09908, 17.64566], [102.10461, 17.64725], [102.10612, 17.64631], [102.10455, 17.64259], [102.10671, 17.64283], [102.10998, 17.63840], [102.11206, 17.63887], [102.11487, 17.63608], [102.11807, 17.63592], [102.11793, 17.63401], [102.11963, 17.63276], [102.12797, 17.63501], [102.13030, 17.63634], [102.13059, 17.63921], [102.13329, 17.64057], [102.13228, 17.64195], [102.13375, 17.64439], [102.13221, 17.64713], [102.13916, 17.64917], [102.13982, 17.65051], [102.13839, 17.65212], [102.14201, 17.65513], [102.14273, 17.65889], [102.14555, 17.66174], [102.14751, 17.66165], [102.14735, 17.66287], [102.14975, 17.66321], [102.14940, 17.66591], [102.15788, 17.66839], [102.16095, 17.66672], [102.16098, 17.66541], [102.16389, 17.66606], [102.16509, 17.66379], [102.17012, 17.66374], [102.17416, 17.66030], [102.18671, 17.65720], [102.19369, 17.65783], [102.20087, 17.65517], [102.20764, 17.65709], [102.22389, 17.65116], [102.22929, 17.65239], [102.24508, 17.65067], [102.26940, 17.66266], [102.26249, 17.67904], [102.26257, 17.68952], [102.27204, 17.69026], [102.27209, 17.68899], [102.27571, 17.68866], [102.28062, 17.68535], [102.28211, 17.68599], [102.28342, 17.69077], [102.28715, 17.69196], [102.28943, 17.68815], [102.29600, 17.68614], [102.29795, 17.68314], [102.29926, 17.68351], [102.29967, 17.68127], [102.30176, 17.68186], [102.30134, 17.67977], [102.29994, 17.67968], [102.30286, 17.67436], [102.31794, 17.67918], [102.31905, 17.64782], [102.32358, 17.62745], [102.32583, 17.59816], [102.33337, 17.57901], [102.33449, 17.56812], [102.33238, 17.55125], [102.34440, 17.53663], [102.34832, 17.52794]]]}}, {"type": "Feature", "properties": {"amp_th": "นาวัง", "amp_code": "3906", "pro_code": "39", "pro_th": "หนองบัวลำภู"}, "geometry": {"type": "Polygon", "coordinates": [[[102.09243, 17.25017], [102.09411, 17.23918], [102.09629, 17.23392], [102.10562, 17.22997], [102.10248, 17.22299], [102.10531, 17.21369], [102.10935, 17.20959], [102.10914, 17.20744], [102.11104, 17.20754], [102.11187, 17.20580], [102.11180, 17.20193], [102.11014, 17.19925], [102.11394, 17.19634], [102.11719, 17.19015], [102.12248, 17.18787], [102.12311, 17.18196], [102.11581, 17.17769], [102.10948, 17.17613], [102.10518, 17.17619], [102.09953, 17.17955], [102.09961, 17.17632], [102.09747, 17.17261], [102.08775, 17.16997], [102.08497, 17.16438], [102.07109, 17.16182], [102.06445, 17.16326], [102.05419, 17.17159], [102.04265, 17.16722], [102.03445, 17.17462], [102.02944, 17.18576], [102.03196, 17.19630], [102.02527, 17.20094], [102.02360, 17.20410], [102.03053, 17.21595], [102.03399, 17.21556], [102.03395, 17.21775], [102.03800, 17.22028], [102.03734, 17.21780], [102.03995, 17.21587], [102.03999, 17.21373], [102.05528, 17.20321], [102.06639, 17.19202], [102.06818, 17.18702], [102.07332, 17.18627], [102.07768, 17.18283], [102.07892, 17.17936], [102.08231, 17.17606], [102.08415, 17.16794], [102.08773, 17.17200], [102.09677, 17.17707], [102.09360, 17.20547], [102.09087, 17.20966], [102.08661, 17.21220], [102.07706, 17.24820], [102.06985, 17.24731], [102.06806, 17.24869], [102.06871, 17.25005], [102.06741, 17.24996], [102.06794, 17.25220], [102.06680, 17.25043], [102.06489, 17.25089], [102.06461, 17.24926], [102.06026, 17.25462], [102.05639, 17.25356], [102.05667, 17.25169], [102.05369, 17.25013], [102.04747, 17.25532], [102.04821, 17.25720], [102.04555, 17.25929], [102.04668, 17.26060], [102.04533, 17.26278], [102.04386, 17.26152], [102.03923, 17.26332], [102.03601, 17.26210], [102.03438, 17.26295], [102.03507, 17.26532], [102.02728, 17.27679], [102.02644, 17.28124], [102.01342, 17.27837], [102.01245, 17.28225], [102.01458, 17.28496], [102.01469, 17.28780], [102.01246, 17.28699], [102.00724, 17.28923], [102.00784, 17.29205], [102.00312, 17.29444], [102.00363, 17.29643], [101.99241, 17.30586], [101.98364, 17.31627], [101.98582, 17.32288], [101.98797, 17.32271], [101.98697, 17.32883], [101.99033, 17.33406], [102.01141, 17.33423], [102.02026, 17.34120], [102.02069, 17.34505], [102.01427, 17.35776], [102.01392, 17.36407], [102.01848, 17.36680], [102.01802, 17.37391], [102.01104, 17.38315], [102.00823, 17.38405], [102.00711, 17.38680], [102.00430, 17.38725], [101.99860, 17.39378], [101.99843, 17.39561], [101.98178, 17.41147], [101.98226, 17.41487], [101.99285, 17.42056], [101.99151, 17.42371], [101.99324, 17.42578], [101.99287, 17.42761], [101.99016, 17.42910], [101.99035, 17.43223], [101.98876, 17.43282], [101.98916, 17.43507], [101.98727, 17.43910], [101.98933, 17.44047], [101.99090, 17.44436], [101.98904, 17.44568], [101.98940, 17.45273], [101.98749, 17.45420], [101.99227, 17.45940], [101.99644, 17.46043], [101.99927, 17.45647], [102.00087, 17.45885], [102.00341, 17.45923], [102.00890, 17.45719], [102.01865, 17.45945], [102.02487, 17.45821], [102.02817, 17.45924], [102.04118, 17.45513], [102.04647, 17.45576], [102.04695, 17.45301], [102.04910, 17.45235], [102.04897, 17.45044], [102.05237, 17.44908], [102.07782, 17.45901], [102.08051, 17.46246], [102.08334, 17.46126], [102.08672, 17.46541], [102.09165, 17.46215], [102.09292, 17.45896], [102.09588, 17.45658], [102.10313, 17.45284], [102.10505, 17.44680], [102.09674, 17.43675], [102.10636, 17.41365], [102.11895, 17.39991], [102.12631, 17.39513], [102.12175, 17.39121], [102.12222, 17.38057], [102.11813, 17.37539], [102.13215, 17.36810], [102.12612, 17.36639], [102.12510, 17.36399], [102.12165, 17.36412], [102.11870, 17.36167], [102.11681, 17.36249], [102.11371, 17.35156], [102.11471, 17.34184], [102.11742, 17.33817], [102.11024, 17.33278], [102.10731, 17.33291], [102.10711, 17.33167], [102.11842, 17.32268], [102.11741, 17.32205], [102.11824, 17.31748], [102.12149, 17.31006], [102.11905, 17.30820], [102.11891, 17.30634], [102.12096, 17.30755], [102.12112, 17.30342], [102.12387, 17.30449], [102.12366, 17.30562], [102.12500, 17.30434], [102.12723, 17.30509], [102.12713, 17.30318], [102.12972, 17.30393], [102.13520, 17.29910], [102.13926, 17.30020], [102.13921, 17.30123], [102.14047, 17.30029], [102.13962, 17.29927], [102.14147, 17.29960], [102.13878, 17.27120], [102.12026, 17.26237], [102.10480, 17.25053], [102.09243, 17.25017]]]}}]}